      2.10          N: GNSS NAV DATA                        RINEX VERSION / TYPE
fic2rin                                 05/14/2019 00:19:21 PGM / RUN BY / DATE
                                                            END OF HEADER
26 19  5 13  8  0  0.0 2.001048997045e-04 9.663381206337e-12 0.000000000000e+00
    3.100000000000e+01-9.406250000000e+00 4.656265380714e-09-1.648537225724e+00
   -4.898756742477e-07 3.727649571374e-03 7.990747690201e-06 5.153602609634e+03
    1.152000000000e+05 5.587935447693e-09 1.430129179946e+00-4.097819328308e-08
    9.514916149764e-01 2.219375000000e+02 1.753372008239e-01-8.165340119191e-09
   -4.482329564161e-10 1.000000000000e+00 2.053000000000e+03 0.000000000000e+00
    2.400000000000e+00 0.000000000000e+00 7.450580596924e-09 3.100000000000e+01
    1.080000000000e+05 4.000000000000e+00
23 19  5 13  8  0  0.0-1.864265650511e-04 1.591615728103e-12 0.000000000000e+00
    9.600000000000e+01 7.531250000000e+00 5.023423531468e-09 1.455315924527e+00
    5.364418029785e-07 1.320036279503e-02 1.179985702038e-05 5.153594316483e+03
    1.152000000000e+05-2.589076757431e-07-6.580351563656e-01 1.247972249985e-07
    9.434123324304e-01 1.488437500000e+02-2.261887635670e+00-8.318917944895e-09
    2.246522148093e-10 1.000000000000e+00 2.053000000000e+03 0.000000000000e+00
    2.400000000000e+00 0.000000000000e+00-2.048909664154e-08 9.600000000000e+01
    1.080000000000e+05 4.000000000000e+00
14 19  5 13  8  0  0.0-8.069025352597e-05 1.591615728103e-12 0.000000000000e+00
    8.600000000000e+01 3.165625000000e+01 4.512330813833e-09 2.607909179554e+00
    1.559033989906e-06 1.058443996590e-02 1.079589128494e-05 5.153701826096e+03
    1.152000000000e+05 5.401670932770e-08-5.603828086162e-01-9.872019290924e-08
    9.606964359713e-01 1.678437500000e+02-1.940696276418e+00-7.786395763209e-09
    2.353669468352e-10 1.000000000000e+00 2.053000000000e+03 0.000000000000e+00
    3.400000000000e+00 0.000000000000e+00-9.778887033463e-09 8.600000000000e+01
    1.080000000000e+05 4.000000000000e+00
19 19  5 13  8  0  0.0-3.195921890438e-04 4.547473508865e-12 0.000000000000e+00
    9.100000000000e+01 4.550000000000e+01 3.851589005571e-09-6.927220997303e-01
    2.583488821983e-06 9.579325560480e-03 9.251758456230e-06 5.153634801865e+03
    1.152000000000e+05-8.568167686462e-08 2.602573191711e+00 1.024454832077e-07
    9.821025876920e-01 2.159687500000e+02 1.396259279255e+00-7.944973797192e-09
    3.357282701443e-10 1.000000000000e+00 2.053000000000e+03 0.000000000000e+00
    3.400000000000e+00 0.000000000000e+00-1.536682248116e-08 9.100000000000e+01
    1.080000000000e+05 4.000000000000e+00
32 19  5 13  8  0  0.0-8.996156975627e-05 1.693933882052e-11 0.000000000000e+00
    9.800000000000e+01 2.612500000000e+01 4.622335395966e-09-2.792323915796e+00
    1.341104507446e-06 3.021544776857e-03 1.121871173382e-05 5.153590299606e+03
    1.152000000000e+05-1.676380634308e-08-6.464281185544e-01-4.097819328308e-08
    9.568738558998e-01 1.601875000000e+02-2.508468866494e+00-7.975332204599e-09
    2.417957860507e-10 1.000000000000e+00 2.053000000000e+03 0.000000000000e+00
    2.400000000000e+00 0.000000000000e+00 4.656612873077e-10 9.800000000000e+01
    1.080000000000e+05 4.000000000000e+00
18 19  5 13  8  0  0.0 5.269702523947e-05 3.296918293927e-12 0.000000000000e+00
    6.600000000000e+01 4.125000000000e+00 5.023423531468e-09 4.257819851287e-01
    6.705522537231e-08 1.529636932537e-02 4.008412361145e-06 5.153700126648e+03
    1.152000000000e+05-2.384185791016e-07-2.782698438559e+00-4.097819328308e-08
    9.541566362481e-01 3.003125000000e+02 1.387385191854e+00-8.822153192377e-09
    1.832219176426e-10 1.000000000000e+00 2.053000000000e+03 0.000000000000e+00
    2.400000000000e+00 0.000000000000e+00-5.587935447693e-09 6.600000000000e+01
    1.080000000000e+05 4.000000000000e+00
17 19  5 13  8  0  0.0 5.393242463470e-05 6.139089236967e-12 0.000000000000e+00
    1.100000000000e+02 4.884375000000e+01 3.630508368103e-09 2.774890635573e+00
    2.589076757431e-06 1.284142315853e-02 9.221956133842e-06 5.153743167877e+03
    1.152000000000e+05 1.154839992523e-07 2.556302048150e+00-9.499490261078e-08
    9.842558348691e-01 2.097500000000e+02-1.712563279363e+00-7.498883787181e-09
    2.282237921513e-10 1.000000000000e+00 2.053000000000e+03 0.000000000000e+00
    2.400000000000e+00 0.000000000000e+00-1.117587089539e-08 1.100000000000e+02
    1.080000000000e+05 4.000000000000e+00
12 19  5 13  8  0  0.0 2.429210580885e-04-3.410605131648e-12 0.000000000000e+00
    1.160000000000e+02-4.593750000000e+00 4.026239137592e-09-6.933926457869e-01
   -2.402812242508e-07 7.665039272979e-03 8.322298526764e-06 5.153650199890e+03
    1.152000000000e+05-3.166496753693e-08 1.522637651718e+00 1.620501279831e-07
    9.827300712921e-01 2.312500000000e+02 1.080864795797e+00-7.984261147953e-09
   -4.325180161115e-10 1.000000000000e+00 2.053000000000e+03 0.000000000000e+00
    2.400000000000e+00 0.000000000000e+00-1.210719347000e-08 1.160000000000e+02
    1.080000000000e+05 4.000000000000e+00
28 19  5 13  8  0  0.0 7.678195834160e-04 0.000000000000e+00 0.000000000000e+00
    6.700000000000e+01-1.850000000000e+01 3.774085777250e-09-2.609873018338e+00
   -8.922070264816e-07 1.903682411648e-02 9.158626198769e-06 5.153704076767e+03
    1.152000000000e+05 1.862645149231e-07 1.545529431859e+00-1.490116119385e-08
    9.820267032054e-01 2.123750000000e+02-1.467347047660e+00-7.419237612455e-09
   -4.864488339751e-10 1.000000000000e+00 2.053000000000e+03 0.000000000000e+00
    2.400000000000e+00 0.000000000000e+00-1.117587089539e-08 6.700000000000e+01
    1.080000000000e+05 4.000000000000e+00
20 19  5 13  8  0  0.0 5.246791988611e-04 2.273736754432e-13 0.000000000000e+00
    1.020000000000e+02-8.034375000000e+01 5.424511666970e-09 3.126363576906e-01
   -4.237517714500e-06 4.373227013275e-03 7.519498467445e-06 5.153686199188e+03
    1.152000000000e+05-3.539025783539e-08-1.806833936903e+00-2.421438694000e-08
    9.302609066322e-01 2.178437500000e+02 2.354093475042e+00-8.593572242492e-09
   -7.321733551020e-11 1.000000000000e+00 2.053000000000e+03 0.000000000000e+00
    2.400000000000e+00 0.000000000000e+00-8.847564458847e-09 1.020000000000e+02
    1.080000000000e+05 4.000000000000e+00
 4 19  5 13  8  0  0.0 1.597036607563e-04 3.524291969370e-12 0.000000000000e+00
    1.280000000000e+02 1.796875000000e+01 4.623764026903e-09-1.347609632779e-01
    1.078471541405e-06 4.142143297940e-04 1.098588109016e-05 5.153761445999e+03
    1.152000000000e+05 1.080334186554e-07-6.079810602573e-01-4.284083843231e-08
    9.600019843703e-01 1.666562500000e+02-1.535850467411e+00-8.007476400676e-09
    2.610823036973e-10 1.000000000000e+00 2.053000000000e+03 0.000000000000e+00
    4.800000000000e+01 6.300000000000e+01-8.847564458847e-09 6.400000000000e+02
    1.080300000000e+05 4.000000000000e+00
19 19  5 13  7 59 44.0-3.195926547050e-04 4.547473508865e-12 0.000000000000e+00
    2.300000000000e+01 4.550000000000e+01 3.851946163305e-09-6.950558636838e-01
    2.583488821983e-06 9.579322650097e-03 9.251758456230e-06 5.153634801865e+03
    1.151840000000e+05-8.568167686462e-08 2.602573305819e+00 1.024454832077e-07
    9.821025935437e-01 2.159687500000e+02 1.396259271940e+00-7.944616639458e-09
    3.360854278785e-10 1.000000000000e+00 2.053000000000e+03 0.000000000000e+00
    2.400000000000e+00 0.000000000000e+00-1.536682248116e-08 2.300000000000e+01
    1.092000000000e+05 4.000000000000e+00
20 19  5 13  7 59 44.0 5.246796645224e-04 2.273736754432e-13 0.000000000000e+00
    5.000000000000e+00-8.034375000000e+01 5.424511666970e-09 3.103025878855e-01
   -4.237517714500e-06 4.373227246106e-03 7.519498467445e-06 5.153686197281e+03
    1.151840000000e+05-3.539025783539e-08-1.806833793537e+00-2.421438694000e-08
    9.302608963917e-01 2.178437500000e+02 2.354093535022e+00-8.593572242492e-09
   -7.321733551020e-11 1.000000000000e+00 2.053000000000e+03 0.000000000000e+00
    2.400000000000e+00 0.000000000000e+00-8.847564458847e-09 5.000000000000e+00
    1.092600000000e+05 4.000000000000e+00
14 19  5 13  7 59 44.0-8.069165050983e-05 1.591615728103e-12 0.000000000000e+00
    0.000000000000e+00 3.165625000000e+01 4.512330813833e-09 2.605575497524e+00
    1.559033989906e-06 1.058444078080e-02 1.079589128494e-05 5.153701822281e+03
    1.151840000000e+05 5.401670932770e-08-5.603826945085e-01-9.872019290924e-08
    9.606964388971e-01 1.678437500000e+02-1.940696250086e+00-7.786395763209e-09
    2.353669468352e-10 1.000000000000e+00 2.053000000000e+03 0.000000000000e+00
    2.400000000000e+00 0.000000000000e+00-9.778887033463e-09 0.000000000000e+00
    1.093500000000e+05 4.000000000000e+00
 2 19  5 13  7 59 44.0-2.119364216924e-04-9.208633855451e-12 0.000000000000e+00
    3.000000000000e+00 4.968750000000e+00 4.972349975478e-09 9.621327450336e-01
    1.061707735062e-07 1.888972718734e-02 4.146248102188e-06 5.153703824997e+03
    1.151840000000e+05-3.036111593246e-07-2.796328074723e+00-4.097819328308e-08
    9.547430542747e-01 2.965000000000e+02-1.741882249645e+00-8.773222582793e-09
    2.117945363783e-10 1.000000000000e+00 2.053000000000e+03 0.000000000000e+00
    2.400000000000e+00 0.000000000000e+00-2.048909664154e-08 3.000000000000e+00
    1.130100000000e+05 4.000000000000e+00
23 19  5 13  7 59 44.0-1.864274963737e-04 1.591615728103e-12 0.000000000000e+00
    3.500000000000e+01 7.531250000000e+00 5.023066373734e-09 1.452982109371e+00
    5.364418029785e-07 1.320036326069e-02 1.179985702038e-05 5.153594320297e+03
    1.151840000000e+05-2.589076757431e-07-6.580350349434e-01 1.229345798492e-07
    9.434123251158e-01 1.488437500000e+02-2.261887698576e+00-8.318560787161e-09
    2.242950570751e-10 1.000000000000e+00 2.053000000000e+03 0.000000000000e+00
    2.400000000000e+00 0.000000000000e+00-2.048909664154e-08 3.500000000000e+01
    1.131000000000e+05 4.000000000000e+00
